TEVEL2-4                
1 63213U 25052D   26068.69417973  .00020990  00000+0  70363-3 0  9998
2 63213  97.4009 325.1237 0004733  95.3468 264.8313 15.30925813 54879
STARLINK-35929          
1 66625U 25271J   26068.51757364  .00024975  00000+0  85400-3 0  9998
2 66625  53.1596 140.4994 0001638  48.6022 311.5120 15.30143185 17548
